start=new Date('2023-04-02T00:00:00.000Z').valueOf();
sats=[{"TLE_LINE2":"2 49176  69.9985  79.9138 0002923 267.7832  92.2992 14.98328198 86238","COUNTRY_CODE":"US","CLASSIFICATION_TYPE":"U","EPHEMERIS_TYPE":"0","PERIOD":"96.107","MEAN_MOTION":"14.98328198","MEAN_ELEMENT_THEORY":"SGP4","MEAN_ANOMALY":"92.2992","GP_ID":"229276602","PERIAPSIS":"570.032","REF_FRAME":"TEME","BSTAR":"0.00001857400000","SEMIMAJOR_AXIS":"6950.198","OBJECT_TYPE":"PAYLOAD","OBJECT_ID":"2021-082AY","SITE":"AFWTR","CENTER_NAME":"EARTH","INCLINATION":"69.9985","APOAPSIS":"574.095","EPOCH":"2023-04-01T16:07:53.899104","REV_AT_EPOCH":"8623","NORAD_CAT_ID":"49176","FILE":"3877516","ECCENTRICITY":"0.00029230","ELEMENT_SET_NO":"999","DECAY_DATE":null,"TLE_LINE1":"1 49176U 21082AY  23091.67215161  .00000129  00000-0  18574-4 0  9995","RCS_SIZE":"LARGE","ARG_OF_PERICENTER":"267.7832","OBJECT_NAME":"STARLINK-3069","LAUNCH_DATE":"2021-09-14","TIME_SYSTEM":"UTC","RA_OF_ASC_NODE":"79.9138","MEAN_MOTION_DOT":"0.00000129","MEAN_MOTION_DDOT":"0.0000000000000"},{"ELEMENT_SET_NO":"999","DECAY_DATE":null,"RCS_SIZE":"LARGE","TLE_LINE1":"1 49177U 21082AZ  23091.62628363  .00040623  00000-0  34098-2 0  9993","ARG_OF_PERICENTER":"271.6494","OBJECT_NAME":"STARLINK-3103","LAUNCH_DATE":"2021-09-14","TIME_SYSTEM":"UTC","RA_OF_ASC_NODE":"80.0367","MEAN_MOTION_DOT":"0.00040623","MEAN_MOTION_DDOT":"0.0000000000000","COUNTRY_CODE":"US","TLE_LINE2":"2 49177  69.9992  80.0367 0002989 271.6494  88.4322 14.98134955 87426","CLASSIFICATION_TYPE":"U","EPHEMERIS_TYPE":"0","PERIOD":"96.120","MEAN_MOTION":"14.98134955","MEAN_ELEMENT_THEORY":"SGP4","MEAN_ANOMALY":"88.4322","GP_ID":"229276852","PERIAPSIS":"570.584","BSTAR":"0.00340980000000","REF_FRAME":"TEME","SEMIMAJOR_AXIS":"6950.796","OBJECT_ID":"2021-082AZ","OBJECT_TYPE":"PAYLOAD","SITE":"AFWTR","INCLINATION":"69.9992","CENTER_NAME":"EARTH","APOAPSIS":"574.739","EPOCH":"2023-04-01T15:01:50.905632","REV_AT_EPOCH":"8742","NORAD_CAT_ID":"49177","FILE":"3877516","ECCENTRICITY":"0.00029890"},{"LAUNCH_DATE":"2021-09-14","ARG_OF_PERICENTER":"270.4374","OBJECT_NAME":"STARLINK-3086","RCS_SIZE":"LARGE","TLE_LINE1":"1 49178U 21082BA  23091.78525589 -.00013212  00000-0 -10999-2 0  9997","DECAY_DATE":null,"ELEMENT_SET_NO":"999","MEAN_MOTION_DDOT":"0.0000000000000","RA_OF_ASC_NODE":"119.6195","MEAN_MOTION_DOT":"-0.00013212","TIME_SYSTEM":"UTC","OBJECT_TYPE":"PAYLOAD","OBJECT_ID":"2021-082BA","SEMIMAJOR_AXIS":"6950.007","BSTAR":"-0.00109990000000","REF_FRAME":"TEME","PERIAPSIS":"569.949","GP_ID":"229277102","MEAN_ANOMALY":"89.6468","MEAN_MOTION":"14.98390128","MEAN_ELEMENT_THEORY":"SGP4","COUNTRY_CODE":"US","TLE_LINE2":"2 49178  69.9977 119.6195 0002767 270.4374  89.6468 14.98390128 86425","CLASSIFICATION_TYPE":"U","EPHEMERIS_TYPE":"0","PERIOD":"96.103","ECCENTRICITY":"0.00027670","FILE":"3877516","REV_AT_EPOCH":"8642","NORAD_CAT_ID":"49178","EPOCH":"2023-04-01T18:50:46.108896","INCLINATION":"69.9977","CENTER_NAME":"EARTH","APOAPSIS":"573.795","SITE":"AFWTR"},{"LAUNCH_DATE":"2021-09-14","DECAY_DATE":null,"ELEMENT_SET_NO":"999","TLE_LINE1":"1 49179U 21082BB  23091.68049960  .00002840  00000-0  24569-3 0  9993","RCS_SIZE":"LARGE","OBJECT_NAME":"STARLINK-3043","ARG_OF_PERICENTER":"265.4601","MEAN_MOTION_DDOT":"0.0000000000000","TIME_SYSTEM":"UTC","RA_OF_ASC_NODE":"79.8825","MEAN_MOTION_DOT":"0.00002840","PERIAPSIS":"569.692","GP_ID":"229276352","BSTAR":"0.00024569000000","REF_FRAME":"TEME","SEMIMAJOR_AXIS":"6950.169","OBJECT_TYPE":"PAYLOAD","OBJECT_ID":"2021-082BB","PERIOD":"96.106","TLE_LINE2":"2 49179  69.9983  79.8825 0003369 265.4601  94.6173 14.98337802 86234","COUNTRY_CODE":"US","CLASSIFICATION_TYPE":"U","EPHEMERIS_TYPE":"0","MEAN_ELEMENT_THEORY":"SGP4","MEAN_MOTION":"14.98337802","MEAN_ANOMALY":"94.6173","NORAD_CAT_ID":"49179","REV_AT_EPOCH":"8623","FILE":"3877516","ECCENTRICITY":"0.00033690","SITE":"AFWTR","APOAPSIS":"574.375","INCLINATION":"69.9983","CENTER_NAME":"EARTH","EPOCH":"2023-04-01T16:19:55.165440"},{"REF_FRAME":"TEME","BSTAR":"-0.00000807650000","GP_ID":"229276102","PERIAPSIS":"569.915","OBJECT_TYPE":"PAYLOAD","OBJECT_ID":"2021-082BC","SEMIMAJOR_AXIS":"6950.194","MEAN_ELEMENT_THEORY":"SGP4","MEAN_MOTION":"14.98329716","PERIOD":"96.107","TLE_LINE2":"2 49180  69.9975  99.7667 0003085 266.8770  93.2036 14.98329716 86923","EPHEMERIS_TYPE":"0","COUNTRY_CODE":"US","CLASSIFICATION_TYPE":"U","MEAN_ANOMALY":"93.2036","NORAD_CAT_ID":"49180","REV_AT_EPOCH":"8692","ECCENTRICITY":"0.00030850","FILE":"3877516","SITE":"AFWTR","EPOCH":"2023-04-01T17:32:20.898816","APOAPSIS":"574.203","INCLINATION":"69.9975","CENTER_NAME":"EARTH","LAUNCH_DATE":"2021-09-14","RCS_SIZE":"LARGE","TLE_LINE1":"1 49180U 21082BC  23091.73079744 -.00000189  00000-0 -80765-5 0  9992","DECAY_DATE":null,"ELEMENT_SET_NO":"999","OBJECT_NAME":"STARLINK-3050","ARG_OF_PERICENTER":"266.8770","MEAN_MOTION_DDOT":"0.0000000000000","RA_OF_ASC_NODE":"99.7667","MEAN_MOTION_DOT":"-0.00000189","TIME_SYSTEM":"UTC"},{"MEAN_ANOMALY":"87.4206","PERIOD":"96.107","TLE_LINE2":"2 49181  70.0014 120.3519 0002660 272.6649  87.4206 14.98335498 86418","COUNTRY_CODE":"US","EPHEMERIS_TYPE":"0","CLASSIFICATION_TYPE":"U","MEAN_ELEMENT_THEORY":"SGP4","MEAN_MOTION":"14.98335498","SEMIMAJOR_AXIS":"6950.176","OBJECT_TYPE":"PAYLOAD","OBJECT_ID":"2021-082BD","PERIAPSIS":"570.192","GP_ID":"229244072","REF_FRAME":"TEME","BSTAR":"-0.00006455300000","APOAPSIS":"573.890","CENTER_NAME":"EARTH","INCLINATION":"70.0014","EPOCH":"2023-04-01T12:02:13.661664","SITE":"AFWTR","FILE":"3877270","ECCENTRICITY":"0.00026600","NORAD_CAT_ID":"49181","REV_AT_EPOCH":"8641","OBJECT_NAME":"STARLINK-3059","ARG_OF_PERICENTER":"272.6649","DECAY_DATE":null,"ELEMENT_SET_NO":"999","RCS_SIZE":"LARGE","TLE_LINE1":"1 49181U 21082BD  23091.50154701 -.00000863  00000-0 -64553-4 0  9990","LAUNCH_DATE":"2021-09-14","TIME_SYSTEM":"UTC","MEAN_MOTION_DOT":"-0.00000863","RA_OF_ASC_NODE":"120.3519","MEAN_MOTION_DDOT":"0.0000000000000"},{"DECAY_DATE":null,"ELEMENT_SET_NO":"999","RCS_SIZE":"LARGE","TLE_LINE1":"1 49408U 21104A   23091.75525526  .00011077  00000-0  71313-3 0  9999","ARG_OF_PERICENTER":"67.9936","OBJECT_NAME":"STARLINK-3151","LAUNCH_DATE":"2021-11-13","TIME_SYSTEM":"UTC","RA_OF_ASC_NODE":"5.7270","MEAN_MOTION_DOT":"0.00011077","MEAN_MOTION_DDOT":"0.0000000000000","TLE_LINE2":"2 49408  53.2161   5.7270 0001585  67.9936 292.1224 15.08832241 76655","COUNTRY_CODE":"US","CLASSIFICATION_TYPE":"U","EPHEMERIS_TYPE":"0","PERIOD":"95.438","MEAN_MOTION":"15.08832241","MEAN_ELEMENT_THEORY":"SGP4","MEAN_ANOMALY":"292.1224","PERIAPSIS":"538.673","GP_ID":"229276875","REF_FRAME":"TEME","BSTAR":"0.00071313000000","SEMIMAJOR_AXIS":"6917.904","OBJECT_ID":"2021-104A","OBJECT_TYPE":"PAYLOAD","SITE":"AFETR","INCLINATION":"53.2161","CENTER_NAME":"EARTH","APOAPSIS":"540.866","EPOCH":"2023-04-01T18:07:34.054464","REV_AT_EPOCH":"7665","NORAD_CAT_ID":"49408","FILE":"3877516","ECCENTRICITY":"0.00015850"},{"MEAN_MOTION_DOT":"0.00004539","RA_OF_ASC_NODE":"8.3159","TIME_SYSTEM":"UTC","MEAN_MOTION_DDOT":"0.0000000000000","ARG_OF_PERICENTER":"106.4510","OBJECT_NAME":"STARLINK-3075","RCS_SIZE":"LARGE","TLE_LINE1":"1 49409U 21104B   23091.17380468  .00004539  00000-0  30304-3 0  9990","ELEMENT_SET_NO":"999","DECAY_DATE":null,"LAUNCH_DATE":"2021-11-13","EPOCH":"2023-04-01T04:10:16.724352","INCLINATION":"53.2169","CENTER_NAME":"EARTH","APOAPSIS":"540.575","SITE":"AFETR","ECCENTRICITY":"0.00012280","FILE":"3877448","REV_AT_EPOCH":"7765","NORAD_CAT_ID":"49409","MEAN_ANOMALY":"253.6617","MEAN_MOTION":"15.08846468","MEAN_ELEMENT_THEORY":"SGP4","CLASSIFICATION_TYPE":"U","TLE_LINE2":"2 49409  53.2169   8.3159 0001228 106.4510 253.6617 15.08846468 77655","COUNTRY_CODE":"US","EPHEMERIS_TYPE":"0","PERIOD":"95.437","OBJECT_ID":"2021-104B","OBJECT_TYPE":"PAYLOAD","SEMIMAJOR_AXIS":"6917.861","BSTAR":"0.00030304000000","REF_FRAME":"TEME","PERIAPSIS":"538.876","GP_ID":"229253133"},{"ARG_OF_PERICENTER":"55.3299","OBJECT_NAME":"STARLINK-3147","DECAY_DATE":null,"ELEMENT_SET_NO":"999","TLE_LINE1":"1 49410U 21104C   23091.76261286  .00001479  00000-0  11099-3 0  9993","RCS_SIZE":"LARGE","LAUNCH_DATE":"2021-11-13","TIME_SYSTEM":"UTC","RA_OF_ASC_NODE":"5.6750","MEAN_MOTION_DOT":"0.00001479","MEAN_MOTION_DDOT":"0.0000000000000","MEAN_ANOMALY":"304.7803","TLE_LINE2":"2 49410  53.2188   5.6750 0001172  55.3299 304.7803 15.08833842 76655","COUNTRY_CODE":"US","CLASSIFICATION_TYPE":"U","EPHEMERIS_TYPE":"0","PERIOD":"95.438","MEAN_MOTION":"15.08833842","MEAN_ELEMENT_THEORY":"SGP4","SEMIMAJOR_AXIS":"6917.899","OBJECT_ID":"2021-104C","OBJECT_TYPE":"PAYLOAD","GP_ID":"229276375","PERIAPSIS":"538.953","BSTAR":"0.00011099000000","REF_FRAME":"TEME","INCLINATION":"53.2188","CENTER_NAME":"EARTH","APOAPSIS":"540.575","EPOCH":"2023-04-01T18:18:09.751104","SITE":"AFETR","FILE":"3877516","ECCENTRICITY":"0.00011720","REV_AT_EPOCH":"7665","NORAD_CAT_ID":"49410"},{"COUNTRY_CODE":"US","TLE_LINE2":"2 49411  53.2189 355.7051 0001667  70.8451 289.2722 15.08826774 76799","CLASSIFICATION_TYPE":"U","EPHEMERIS_TYPE":"0","PERIOD":"95.438","MEAN_MOTION":"15.08826774","MEAN_ELEMENT_THEORY":"SGP4","MEAN_ANOMALY":"289.2722","GP_ID":"229276125","PERIAPSIS":"538.633","REF_FRAME":"TEME","BSTAR":"-0.00031135000000","SEMIMAJOR_AXIS":"6917.921","OBJECT_TYPE":"PAYLOAD","OBJECT_ID":"2021-104D","SITE":"AFETR","INCLINATION":"53.2189","CENTER_NAME":"EARTH","APOAPSIS":"540.939","EPOCH":"2023-04-01T18:08:53.235744","REV_AT_EPOCH":"7679","NORAD_CAT_ID":"49411","FILE":"3877516","ECCENTRICITY":"0.00016670","ELEMENT_SET_NO":"999","DECAY_DATE":null,"RCS_SIZE":"LARGE","TLE_LINE1":"1 49411U 21104D   23091.75617171 -.00005238  00000-0 -31135-3 0  9993","ARG_OF_PERICENTER":"70.8451","OBJECT_NAME":"STARLINK-3162","LAUNCH_DATE":"2021-11-13","TIME_SYSTEM":"UTC","MEAN_MOTION_DOT":"-0.00005238","RA_OF_ASC_NODE":"355.7051","MEAN_MOTION_DDOT":"0.0000000000000"}];
